DELTA 2 R/B(1)          
1 20453U 90008B   26043.19301809  .00079978  00000+0  10444-2 0  9991
2 20453  35.6052 341.7229 0092439  20.4748 339.9658 15.52436033922162
COSMOS 2058             
1 20465U 90010A   26043.15554910  .00004748  00000+0  28164-3 0  9998
2 20465  82.4649  72.5828 0011732  68.2711 291.9767 15.11083401938389
SL-14 R/B               
1 20466U 90010B   26043.19191698  .00000479  00000+0  55050-4 0  9995
2 20466  82.5023 291.3413 0020579  27.8969 332.3345 14.83546915924708
SL-14 R/B               
1 20511U 90018B   26043.05010788  .00000474  00000+0  56489-4 0  9991
2 20511  82.5180 247.0598 0016460 171.5118 188.6378 14.82117379918788
HST                     
1 20580U 90037B   26042.70850717  .00007862  00000+0  26282-3 0  9998
2 20580  28.4660 217.1802 0001637 171.3717 188.6907 15.29062315769339
SL-16 R/B               
1 20625U 90046B   26043.24816320  .00000322  00000+0  19073-3 0  9994
2 20625  71.0009 351.3429 0014924 335.1063  24.9338 14.15008330844798
COSMOS 2084             
1 20663U 90055A   26043.21730497  .00002855  00000+0  21075-3 0  9991
2 20663  62.7895  62.4436 0021100 184.6272 175.4637 15.05483597932481
SL-6 R/B(2)             
1 20666U 90055D   26043.23199247  .00003074  00000+0  23810-3 0  9991
2 20666  62.7847 340.4144 0020940 340.0558  19.9720 15.03464027934361
SL-8 R/B                
1 20775U 90078B   26043.10017059  .00016470  00000+0  48439-3 0  9991
2 20775  82.9022 274.3082 0366741  99.7328 264.5509 14.88210290805499
SL-8 R/B                
1 21088U 91006B   26042.92360115  .00000034  00000+0  18018-4 0  9994
2 21088  82.9439 189.2013 0023727 106.9068  16.9465 13.77492185760529
OKEAN-3                 
1 21397U 91039A   26043.27599159  .00004466  00000+0  31536-3 0  9996
2 21397  82.5176   1.4554 0016396  60.5270 299.7589 15.04601006861217
COSMOS 2151             
1 21422U 91042A   26043.26831584  .00002042  00000+0  16177-3 0  9991
2 21422  82.4959 108.1998 0013529 140.4325 219.7889 15.00008420859382
