CCSDS_OMM_VERS = 2.0
CREATION_DATE  = 
ORIGINATOR     = 

OBJECT_NAME    = DELTA 2 R/B(1)
OBJECT_ID      = 1990-008B
CENTER_NAME    = EARTH
REF_FRAME      = TEME
TIME_SYSTEM    = UTC
MEAN_ELEMENT_THEORY = SGP/SGP4

EPOCH          = 2026-02-12T04:37:56.762976
MEAN_MOTION    = 15.52436033
ECCENTRICITY   = .00924398
INCLINATION    = 35.6052
RA_OF_ASC_NODE = 341.7229
ARG_OF_PERICENTER = 20.4748
MEAN_ANOMALY   = 339.9658

EPHEMERIS_TYPE = 0
CLASSIFICATION_TYPE = U
NORAD_CAT_ID   = 20453
ELEMENT_SET_NO = 999
REV_AT_EPOCH   = 92216
BSTAR          = .10443944E-2
MEAN_MOTION_DOT = .79978E-3
MEAN_MOTION_DDOT = 0

CCSDS_OMM_VERS = 2.0
CREATION_DATE  = 
ORIGINATOR     = 

OBJECT_NAME    = COSMOS 2058
OBJECT_ID      = 1990-010A
CENTER_NAME    = EARTH
REF_FRAME      = TEME
TIME_SYSTEM    = UTC
MEAN_ELEMENT_THEORY = SGP/SGP4

EPOCH          = 2026-02-12T03:43:59.442240
MEAN_MOTION    = 15.11083401
ECCENTRICITY   = .00117329
INCLINATION    = 82.4649
RA_OF_ASC_NODE = 72.5828
ARG_OF_PERICENTER = 68.2711
MEAN_ANOMALY   = 291.9767

EPHEMERIS_TYPE = 0
CLASSIFICATION_TYPE = U
NORAD_CAT_ID   = 20465
ELEMENT_SET_NO = 999
REV_AT_EPOCH   = 93838
BSTAR          = .28164079E-3
MEAN_MOTION_DOT = .4748E-4
MEAN_MOTION_DDOT = 0

CCSDS_OMM_VERS = 2.0
CREATION_DATE  = 
ORIGINATOR     = 

OBJECT_NAME    = SL-14 R/B
OBJECT_ID      = 1990-010B
CENTER_NAME    = EARTH
REF_FRAME      = TEME
TIME_SYSTEM    = UTC
MEAN_ELEMENT_THEORY = SGP/SGP4

EPOCH          = 2026-02-12T04:36:21.627072
MEAN_MOTION    = 14.83546915
ECCENTRICITY   = .00205798
INCLINATION    = 82.5023
RA_OF_ASC_NODE = 291.3413
ARG_OF_PERICENTER = 27.8969
MEAN_ANOMALY   = 332.3345

EPHEMERIS_TYPE = 0
CLASSIFICATION_TYPE = U
NORAD_CAT_ID   = 20466
ELEMENT_SET_NO = 999
REV_AT_EPOCH   = 92470
BSTAR          = .55049745E-4
MEAN_MOTION_DOT = .479E-5
MEAN_MOTION_DDOT = 0

CCSDS_OMM_VERS = 2.0
CREATION_DATE  = 
ORIGINATOR     = 

OBJECT_NAME    = SL-14 R/B
OBJECT_ID      = 1990-018B
CENTER_NAME    = EARTH
REF_FRAME      = TEME
TIME_SYSTEM    = UTC
MEAN_ELEMENT_THEORY = SGP/SGP4

EPOCH          = 2026-02-12T01:12:09.320832
MEAN_MOTION    = 14.82117379
ECCENTRICITY   = .00164609
INCLINATION    = 82.5180
RA_OF_ASC_NODE = 247.0598
ARG_OF_PERICENTER = 171.5118
MEAN_ANOMALY   = 188.6378

EPHEMERIS_TYPE = 0
CLASSIFICATION_TYPE = U
NORAD_CAT_ID   = 20511
ELEMENT_SET_NO = 999
REV_AT_EPOCH   = 91878
BSTAR          = .56488549E-4
MEAN_MOTION_DOT = .474E-5
MEAN_MOTION_DDOT = 0

CCSDS_OMM_VERS = 2.0
CREATION_DATE  = 
ORIGINATOR     = 

OBJECT_NAME    = HST
OBJECT_ID      = 1990-037B
CENTER_NAME    = EARTH
REF_FRAME      = TEME
TIME_SYSTEM    = UTC
MEAN_ELEMENT_THEORY = SGP/SGP4

EPOCH          = 2026-02-11T17:00:15.019488
MEAN_MOTION    = 15.29062315
ECCENTRICITY   = .0001637
INCLINATION    = 28.4660
RA_OF_ASC_NODE = 217.1802
ARG_OF_PERICENTER = 171.3717
MEAN_ANOMALY   = 188.6907

EPHEMERIS_TYPE = 0
CLASSIFICATION_TYPE = U
NORAD_CAT_ID   = 20580
ELEMENT_SET_NO = 999
REV_AT_EPOCH   = 76933
BSTAR          = .26281687E-3
MEAN_MOTION_DOT = .7862E-4
MEAN_MOTION_DDOT = 0

CCSDS_OMM_VERS = 2.0
CREATION_DATE  = 
ORIGINATOR     = 

OBJECT_NAME    = SL-16 R/B
OBJECT_ID      = 1990-046B
CENTER_NAME    = EARTH
REF_FRAME      = TEME
TIME_SYSTEM    = UTC
MEAN_ELEMENT_THEORY = SGP/SGP4

EPOCH          = 2026-02-12T05:57:21.300480
MEAN_MOTION    = 14.15008330
ECCENTRICITY   = .0014924
INCLINATION    = 71.0009
RA_OF_ASC_NODE = 351.3429
ARG_OF_PERICENTER = 335.1063
MEAN_ANOMALY   = 24.9338

EPHEMERIS_TYPE = 0
CLASSIFICATION_TYPE = U
NORAD_CAT_ID   = 20625
ELEMENT_SET_NO = 999
REV_AT_EPOCH   = 84479
BSTAR          = .19072943E-3
MEAN_MOTION_DOT = .322E-5
MEAN_MOTION_DDOT = 0

CCSDS_OMM_VERS = 2.0
CREATION_DATE  = 
ORIGINATOR     = 

OBJECT_NAME    = COSMOS 2084
OBJECT_ID      = 1990-055A
CENTER_NAME    = EARTH
REF_FRAME      = TEME
TIME_SYSTEM    = UTC
MEAN_ELEMENT_THEORY = SGP/SGP4

EPOCH          = 2026-02-12T05:12:55.149408
MEAN_MOTION    = 15.05483597
ECCENTRICITY   = .00211003
INCLINATION    = 62.7895
RA_OF_ASC_NODE = 62.4436
ARG_OF_PERICENTER = 184.6272
MEAN_ANOMALY   = 175.4637

EPHEMERIS_TYPE = 0
CLASSIFICATION_TYPE = U
NORAD_CAT_ID   = 20663
ELEMENT_SET_NO = 999
REV_AT_EPOCH   = 93248
BSTAR          = .21075455E-3
MEAN_MOTION_DOT = .2855E-4
MEAN_MOTION_DDOT = 0

CCSDS_OMM_VERS = 2.0
CREATION_DATE  = 
ORIGINATOR     = 

OBJECT_NAME    = SL-6 R/B(2)
OBJECT_ID      = 1990-055D
CENTER_NAME    = EARTH
REF_FRAME      = TEME
TIME_SYSTEM    = UTC
MEAN_ELEMENT_THEORY = SGP/SGP4

EPOCH          = 2026-02-12T05:34:04.149408
MEAN_MOTION    = 15.03464027
ECCENTRICITY   = .00209404
INCLINATION    = 62.7847
RA_OF_ASC_NODE = 340.4144
ARG_OF_PERICENTER = 340.0558
MEAN_ANOMALY   = 19.9720

EPHEMERIS_TYPE = 0
CLASSIFICATION_TYPE = U
NORAD_CAT_ID   = 20666
ELEMENT_SET_NO = 999
REV_AT_EPOCH   = 93436
BSTAR          = .23809662E-3
MEAN_MOTION_DOT = .3074E-4
MEAN_MOTION_DDOT = 0

CCSDS_OMM_VERS = 2.0
CREATION_DATE  = 
ORIGINATOR     = 

OBJECT_NAME    = SL-8 R/B
OBJECT_ID      = 1990-078B
CENTER_NAME    = EARTH
REF_FRAME      = TEME
TIME_SYSTEM    = UTC
MEAN_ELEMENT_THEORY = SGP/SGP4

EPOCH          = 2026-02-12T02:24:14.738976
MEAN_MOTION    = 14.88210290
ECCENTRICITY   = .03667418
INCLINATION    = 82.9022
RA_OF_ASC_NODE = 274.3082
ARG_OF_PERICENTER = 99.7328
MEAN_ANOMALY   = 264.5509

EPHEMERIS_TYPE = 0
CLASSIFICATION_TYPE = U
NORAD_CAT_ID   = 20775
ELEMENT_SET_NO = 999
REV_AT_EPOCH   = 80549
BSTAR          = .48439465E-3
MEAN_MOTION_DOT = .1647E-3
MEAN_MOTION_DDOT = 0

CCSDS_OMM_VERS = 2.0
CREATION_DATE  = 
ORIGINATOR     = 

OBJECT_NAME    = SL-8 R/B
OBJECT_ID      = 1991-006B
CENTER_NAME    = EARTH
REF_FRAME      = TEME
TIME_SYSTEM    = UTC
MEAN_ELEMENT_THEORY = SGP/SGP4

EPOCH          = 2026-02-11T22:09:59.139360
MEAN_MOTION    = 13.77492185
ECCENTRICITY   = .0023727
INCLINATION    = 82.9439
RA_OF_ASC_NODE = 189.2013
ARG_OF_PERICENTER = 106.9068
MEAN_ANOMALY   = 16.9465

EPHEMERIS_TYPE = 0
CLASSIFICATION_TYPE = U
NORAD_CAT_ID   = 21088
ELEMENT_SET_NO = 999
REV_AT_EPOCH   = 76052
BSTAR          = .18018E-4
MEAN_MOTION_DOT = .34E-6
MEAN_MOTION_DDOT = 0

CCSDS_OMM_VERS = 2.0
CREATION_DATE  = 
ORIGINATOR     = 

OBJECT_NAME    = OKEAN-3
OBJECT_ID      = 1991-039A
CENTER_NAME    = EARTH
REF_FRAME      = TEME
TIME_SYSTEM    = UTC
MEAN_ELEMENT_THEORY = SGP/SGP4

EPOCH          = 2026-02-12T06:37:25.673376
MEAN_MOTION    = 15.04601006
ECCENTRICITY   = .00163961
INCLINATION    = 82.5176
RA_OF_ASC_NODE = 1.4554
ARG_OF_PERICENTER = 60.5270
MEAN_ANOMALY   = 299.7589

EPHEMERIS_TYPE = 0
CLASSIFICATION_TYPE = U
NORAD_CAT_ID   = 21397
ELEMENT_SET_NO = 999
REV_AT_EPOCH   = 86121
BSTAR          = .3153585E-3
MEAN_MOTION_DOT = .4466E-4
MEAN_MOTION_DDOT = 0

CCSDS_OMM_VERS = 2.0
CREATION_DATE  = 
ORIGINATOR     = 

OBJECT_NAME    = COSMOS 2151
OBJECT_ID      = 1991-042A
CENTER_NAME    = EARTH
REF_FRAME      = TEME
TIME_SYSTEM    = UTC
MEAN_ELEMENT_THEORY = SGP/SGP4

EPOCH          = 2026-02-12T06:26:22.488576
MEAN_MOTION    = 15.00008420
ECCENTRICITY   = .00135293
INCLINATION    = 82.4959
RA_OF_ASC_NODE = 108.1998
ARG_OF_PERICENTER = 140.4325
MEAN_ANOMALY   = 219.7889

EPHEMERIS_TYPE = 0
CLASSIFICATION_TYPE = U
NORAD_CAT_ID   = 21422
ELEMENT_SET_NO = 999
REV_AT_EPOCH   = 85938
BSTAR          = .16177203E-3
MEAN_MOTION_DOT = .2042E-4
MEAN_MOTION_DDOT = 0

